{
  "type": "FeatureCollection",
  "features": [
    {
      "type": "Feature",
      "properties": {
        "norad_id": 37867,
        "name": "COSMOS 2476 (744)",
        "group": "glo-ops",
        "lat": 64.98141587305989,
        "lon": 160.83964029263524,
        "alt_km": 19176.230668875633,
        "timestamp": "2025-12-27T19:21:59.012023+00:00",
        "meta_object_name": "COSMOS 2476 (744)",
        "meta_object_id": "2011-064A",
        "meta_epoch": "2025-12-27T05:38:18.293280",
        "meta_mean_motion": 2.13103875,
        "meta_eccentricity": 0.00245828,
        "meta_inclination": 65.1694,
        "meta_ra_of_asc_node": 78.6813,
        "meta_arg_of_pericenter": 235.16,
        "meta_mean_anomaly": 132.8776,
        "meta_ephemeris_type": 0,
        "meta_classification_type": "U",
        "meta_norad_cat_id": 37867,
        "meta_element_set_no": 999,
        "meta_rev_at_epoch": 11010,
        "meta_bstar": 0,
        "meta_mean_motion_dot": -1.3e-07,
        "meta_mean_motion_ddot": 0,
        "tle_line1": "1 37867U 11064A   25361.23493395 -.00000013  00000+0  00000+0 0  9991",
        "tle_line2": "2 37867  65.1694  78.6813 0024582 235.1600 132.8776  2.13103875110102"
      },
      "geometry": {
        "type": "Point",
        "coordinates": [
          160.83964029263524,
          64.98141587305989
        ]
      }
    },
    {
      "type": "Feature",
      "properties": {
        "norad_id": 37868,
        "name": "COSMOS 2477 (745)",
        "group": "glo-ops",
        "lat": -65.10728929522568,
        "lon": -16.33808195250478,
        "alt_km": 19089.932439586133,
        "timestamp": "2025-12-27T19:21:59.012034+00:00",
        "meta_object_name": "COSMOS 2477 (745)",
        "meta_object_id": "2011-064B",
        "meta_epoch": "2025-12-24T15:22:57.950400",
        "meta_mean_motion": 2.13103036,
        "meta_eccentricity": 0.00215718,
        "meta_inclination": 65.1748,
        "meta_ra_of_asc_node": 78.8466,
        "meta_arg_of_pericenter": 235.4688,
        "meta_mean_anomaly": 123.4303,
        "meta_ephemeris_type": 0,
        "meta_classification_type": "U",
        "meta_norad_cat_id": 37868,
        "meta_element_set_no": 999,
        "meta_rev_at_epoch": 11003,
        "meta_bstar": 0,
        "meta_mean_motion_dot": 1e-08,
        "meta_mean_motion_ddot": 0,
        "tle_line1": "1 37868U 11064B   25358.64094850  .00000001  00000+0  00000+0 0  9992",
        "tle_line2": "2 37868  65.1748  78.8466 0021571 235.4688 123.4303  2.13103036110036"
      },
      "geometry": {
        "type": "Point",
        "coordinates": [
          -16.33808195250478,
          -65.10728929522568
        ]
      }
    },
    {
      "type": "Feature",
      "properties": {
        "norad_id": 37869,
        "name": "COSMOS 2475 (743)",
        "group": "glo-ops",
        "lat": -38.662522425925964,
        "lon": -79.53329242384662,
        "alt_km": 19073.150306991964,
        "timestamp": "2025-12-27T19:21:59.012046+00:00",
        "meta_object_name": "COSMOS 2475 (743)",
        "meta_object_id": "2011-064C",
        "meta_epoch": "2025-12-26T02:48:59.782176",
        "meta_mean_motion": 2.13101658,
        "meta_eccentricity": 0.00268162,
        "meta_inclination": 65.1822,
        "meta_ra_of_asc_node": 78.8169,
        "meta_arg_of_pericenter": 249.2724,
        "meta_mean_anomaly": 118.1607,
        "meta_ephemeris_type": 0,
        "meta_classification_type": "U",
        "meta_norad_cat_id": 37869,
        "meta_element_set_no": 999,
        "meta_rev_at_epoch": 11008,
        "meta_bstar": 0,
        "meta_mean_motion_dot": -5e-08,
        "meta_mean_motion_ddot": 0,
        "tle_line1": "1 37869U 11064C   25360.11735859 -.00000005  00000+0  00000+0 0  9994",
        "tle_line2": "2 37869  65.1822  78.8169 0026816 249.2724 118.1607  2.13101658110082"
      },
      "geometry": {
        "type": "Point",
        "coordinates": [
          -79.53329242384662,
          -38.662522425925964
        ]
      }
    },
    {
      "type": "Feature",
      "properties": {
        "norad_id": 39155,
        "name": "COSMOS 2485 (747)",
        "group": "glo-ops",
        "lat": 40.10341908730887,
        "lon": -123.37675660522434,
        "alt_km": 19131.39179399627,
        "timestamp": "2025-12-27T19:21:59.012057+00:00",
        "meta_object_name": "COSMOS 2485 (747)",
        "meta_object_id": "2013-019A",
        "meta_epoch": "2025-12-26T16:36:31.892256",
        "meta_mean_motion": 2.13103192,
        "meta_eccentricity": 0.0025021,
        "meta_inclination": 65.3204,
        "meta_ra_of_asc_node": 79.3983,
        "meta_arg_of_pericenter": 230.593,
        "meta_mean_anomaly": 129.2312,
        "meta_ephemeris_type": 0,
        "meta_classification_type": "U",
        "meta_norad_cat_id": 39155,
        "meta_element_set_no": 999,
        "meta_rev_at_epoch": 9860,
        "meta_bstar": 0,
        "meta_mean_motion_dot": -8e-08,
        "meta_mean_motion_ddot": 0,
        "tle_line1": "1 39155U 13019A   25360.69203579 -.00000008  00000+0  00000+0 0  9991",
        "tle_line2": "2 39155  65.3204  79.3983 0025021 230.5930 129.2312  2.13103192 98601"
      },
      "geometry": {
        "type": "Point",
        "coordinates": [
          -123.37675660522434,
          40.10341908730887
        ]
      }
    },
    {
      "type": "Feature",
      "properties": {
        "norad_id": 39620,
        "name": "COSMOS 2492 (754)",
        "group": "glo-ops",
        "lat": 11.876400766763377,
        "lon": 134.22159132488127,
        "alt_km": 19159.508920673947,
        "timestamp": "2025-12-27T19:21:59.012067+00:00",
        "meta_object_name": "COSMOS 2492 (754)",
        "meta_object_id": "2014-012A",
        "meta_epoch": "2025-12-26T15:36:55.855008",
        "meta_mean_motion": 2.13103318,
        "meta_eccentricity": 0.00143264,
        "meta_inclination": 65.4001,
        "meta_ra_of_asc_node": 319.7994,
        "meta_arg_of_pericenter": 314.1039,
        "meta_mean_anomaly": 45.7823,
        "meta_ephemeris_type": 0,
        "meta_classification_type": "U",
        "meta_norad_cat_id": 39620,
        "meta_element_set_no": 999,
        "meta_rev_at_epoch": 9156,
        "meta_bstar": 0,
        "meta_mean_motion_dot": -3.5e-07,
        "meta_mean_motion_ddot": 0,
        "tle_line1": "1 39620U 14012A   25360.65064647 -.00000035  00000+0  00000+0 0  9999",
        "tle_line2": "2 39620  65.4001 319.7994 0014326 314.1039  45.7823  2.13103318 91569"
      },
      "geometry": {
        "type": "Point",
        "coordinates": [
          134.22159132488127,
          11.876400766763377
        ]
      }
    },
    {
      "type": "Feature",
      "properties": {
        "norad_id": 40001,
        "name": "COSMOS 2500 (755)",
        "group": "glo-ops",
        "lat": 31.476214542519156,
        "lon": -24.164860258608346,
        "alt_km": 19145.331242091095,
        "timestamp": "2025-12-27T19:21:59.012077+00:00",
        "meta_object_name": "COSMOS 2500 (755)",
        "meta_object_id": "2014-032A",
        "meta_epoch": "2025-12-26T08:28:54.444288",
        "meta_mean_motion": 2.13106178,
        "meta_eccentricity": 0.0007619,
        "meta_inclination": 65.3358,
        "meta_ra_of_asc_node": 319.5702,
        "meta_arg_of_pericenter": 219.616,
        "meta_mean_anomaly": 140.3327,
        "meta_ephemeris_type": 0,
        "meta_classification_type": "U",
        "meta_norad_cat_id": 40001,
        "meta_element_set_no": 999,
        "meta_rev_at_epoch": 8977,
        "meta_bstar": 0,
        "meta_mean_motion_dot": -3.4e-07,
        "meta_mean_motion_ddot": 0,
        "tle_line1": "1 40001U 14032A   25360.35340792 -.00000034  00000+0  00000+0 0  9990",
        "tle_line2": "2 40001  65.3358 319.5702 0007619 219.6160 140.3327  2.13106178 89772"
      },
      "geometry": {
        "type": "Point",
        "coordinates": [
          -24.164860258608346,
          31.476214542519156
        ]
      }
    },
    {
      "type": "Feature",
      "properties": {
        "norad_id": 40315,
        "name": "COSMOS 2501 (702K)",
        "group": "glo-ops",
        "lat": -13.982791145046072,
        "lon": 23.40841570359915,
        "alt_km": 19081.459116850197,
        "timestamp": "2025-12-27T19:21:59.012088+00:00",
        "meta_object_name": "COSMOS 2501 (702K)",
        "meta_object_id": "2014-075A",
        "meta_epoch": "2025-12-27T01:58:52.696704",
        "meta_mean_motion": 2.13101389,
        "meta_eccentricity": 0.00201,
        "meta_inclination": 63.616,
        "meta_ra_of_asc_node": 196.3279,
        "meta_arg_of_pericenter": 203.8362,
        "meta_mean_anomaly": 156.1227,
        "meta_ephemeris_type": 0,
        "meta_classification_type": "U",
        "meta_norad_cat_id": 40315,
        "meta_element_set_no": 999,
        "meta_rev_at_epoch": 8618,
        "meta_bstar": 0,
        "meta_mean_motion_dot": 1.2e-06,
        "meta_mean_motion_ddot": 0,
        "tle_line1": "1 40315U 14075A   25361.08255436  .00000120  00000+0  00000+0 0  9991",
        "tle_line2": "2 40315  63.6160 196.3279 0020100 203.8362 156.1227  2.13101389 86186"
      },
      "geometry": {
        "type": "Point",
        "coordinates": [
          23.40841570359915,
          -13.982791145046072
        ]
      }
    }
  ]
}